[{"OBJECT_NAME":"STARLINK-31000","OBJECT_ID":"2023-186R","EPOCH":"2026-03-09T09:53:14.289216","MEAN_MOTION":15.27580413,"ECCENTRICITY":8.639e-5,"INCLINATION":43.0013,"RA_OF_ASC_NODE":65.2185,"ARG_OF_PERICENTER":279.8571,"MEAN_ANOMALY":80.2183,"EPHEMERIS_TYPE":0,"CLASSIFICATION_TYPE":"U","NORAD_CAT_ID":58488,"ELEMENT_SET_NO":999,"REV_AT_EPOCH":12584,"BSTAR":2.9611403e-5,"MEAN_MOTION_DOT":5.53e-6,"MEAN_MOTION_DDOT":0},{"OBJECT_NAME":"OBJECT N","OBJECT_ID":"2019-093N","EPOCH":"2026-03-09T21:41:56.087232","MEAN_MOTION":15.29897693,"ECCENTRICITY":0.0006278,"INCLINATION":98.0505,"RA_OF_ASC_NODE":226.9456,"ARG_OF_PERICENTER":33.3806,"MEAN_ANOMALY":326.7828,"EPHEMERIS_TYPE":0,"CLASSIFICATION_TYPE":"U","NORAD_CAT_ID":44891,"ELEMENT_SET_NO":999,"REV_AT_EPOCH":33957,"BSTAR":0.0010567776,"MEAN_MOTION_DOT":0.00030617,"MEAN_MOTION_DDOT":0}]
